{
    "links": {
        "self": "http://www.neowsapp.com/rest/v1/neo/3892691?api_key=iIulBulltgU6a56xZRHN4H3l9WmuAYTsLGpBGhQ2"
    },
    "id": "3892691",
    "neo_reference_id": "3892691",
    "name": "(2019 VG3)",
    "designation": "2019 VG3",
    "nasa_jpl_url": "http://ssd.jpl.nasa.gov/sbdb.cgi?sstr=3892691",
    "absolute_magnitude_h": 27.9,
    "estimated_diameter": {
        "kilometers": {
            "estimated_diameter_min": 0.0069912523,
            "estimated_diameter_max": 0.0156329154
        },
        "meters": {
            "estimated_diameter_min": 6.9912523225,
            "estimated_diameter_max": 15.6329154409
        },
        "miles": {
            "estimated_diameter_min": 0.0043441614,
            "estimated_diameter_max": 0.0097138403
        },
        "feet": {
            "estimated_diameter_min": 22.9371802696,
            "estimated_diameter_max": 51.289094295
        }
    },
    "is_potentially_hazardous_asteroid": false,
    "close_approach_data": [
        {
            "close_approach_date": "2019-11-02",
            "close_approach_date_full": "2019-Nov-02 22:17",
            "epoch_date_close_approach": 1572733020000,
            "relative_velocity": {
                "kilometers_per_second": "9.416744839",
                "kilometers_per_hour": "33900.2814205411",
                "miles_per_hour": "21064.3165304468"
            },
            "miss_distance": {
                "astronomical": "0.0129769787",
                "lunar": "5.0480447143",
                "kilometers": "1941328.372555369",
                "miles": "1206285.5145033322"
            },
            "orbiting_body": "Earth"
        }
    ],
    "orbital_data": {
        "orbit_id": "1",
        "orbit_determination_date": "2019-11-06 14:42:21",
        "first_observation_date": "2019-11-04",
        "last_observation_date": "2019-11-06",
        "data_arc_in_days": 2,
        "observations_used": 18,
        "orbit_uncertainty": "7",
        "minimum_orbit_intersection": ".00204694",
        "jupiter_tisserand_invariant": "3.190",
        "epoch_osculation": "2459000.5",
        "eccentricity": ".6070784536330344",
        "semi_major_axis": "2.487075531407167",
        "inclination": "2.287872716779617",
        "ascending_node_longitude": "38.30158077022113",
        "orbital_period": "1432.622900486766",
        "perihelion_distance": ".9772255637319468",
        "perihelion_argument": "340.255799352847",
        "aphelion_distance": "3.996925499082386",
        "perihelion_time": "2458774.005361094855",
        "mean_anomaly": "56.91523566888932",
        "mean_motion": ".2512873414753329",
        "equinox": "J2000",
        "orbit_class": {
            "orbit_class_type": "APO",
            "orbit_class_description": "Near-Earth asteroid orbits which cross the Earth’s orbit similar to that of 1862 Apollo",
            "orbit_class_range": "a (semi-major axis) > 1.0 AU; q (perihelion) < 1.017 AU"
        }
    },
    "is_sentry_object": false
}